{
  "type": "FeatureCollection",
  "features": [
    {
      "type": "Feature",
      "properties": {
        "norad_id": 36540,
        "name": "COSMOS 2251 DEB",
        "group": "cosmos-2251-debris",
        "lat": 58.016925894362,
        "lon": -43.43109658205038,
        "alt_km": 696.4392060206665,
        "timestamp": "2025-12-21T11:31:43.256957+00:00",
        "meta_object_name": "COSMOS 2251 DEB",
        "meta_object_id": "1993-036BDA",
        "meta_epoch": "2025-12-20T11:56:31.866720",
        "meta_mean_motion": 14.58548878,
        "meta_eccentricity": 0.00147366,
        "meta_inclination": 74.0273,
        "meta_ra_of_asc_node": 165.7412,
        "meta_arg_of_pericenter": 236.0257,
        "meta_mean_anomaly": 123.9508,
        "meta_ephemeris_type": 0,
        "meta_classification_type": "U",
        "meta_norad_cat_id": 36540,
        "meta_element_set_no": 999,
        "meta_rev_at_epoch": 86123,
        "meta_bstar": 0.00073132746,
        "meta_mean_motion_dot": 3.377e-05,
        "meta_mean_motion_ddot": 0,
        "tle_line1": "1 36540U 93036BDA 25354.49759105  .00003377  00000+0  73133-3 0  9997",
        "tle_line2": "2 36540  74.0273 165.7412 0014736 236.0257 123.9508 14.58548878861231"
      },
      "geometry": {
        "type": "Point",
        "coordinates": [
          -43.43109658205038,
          58.016925894362
        ]
      }
    },
    {
      "type": "Feature",
      "properties": {
        "norad_id": 36550,
        "name": "COSMOS 2251 DEB",
        "group": "cosmos-2251-debris",
        "lat": 50.764879229790075,
        "lon": -162.5588778365679,
        "alt_km": 851.4992913896222,
        "timestamp": "2025-12-21T11:31:43.256969+00:00",
        "meta_object_name": "COSMOS 2251 DEB",
        "meta_object_id": "1993-036BDL",
        "meta_epoch": "2025-12-18T21:01:50.103840",
        "meta_mean_motion": 14.27217133,
        "meta_eccentricity": 0.00780997,
        "meta_inclination": 74.0439,
        "meta_ra_of_asc_node": 181.6412,
        "meta_arg_of_pericenter": 230.9486,
        "meta_mean_anomaly": 128.4696,
        "meta_ephemeris_type": 0,
        "meta_classification_type": "U",
        "meta_norad_cat_id": 36550,
        "meta_element_set_no": 999,
        "meta_rev_at_epoch": 84683,
        "meta_bstar": 0.00048644345,
        "meta_mean_motion_dot": 1.202e-05,
        "meta_mean_motion_ddot": 0,
        "tle_line1": "1 36550U 93036BDL 25352.87627435  .00001202  00000+0  48644-3 0  9992",
        "tle_line2": "2 36550  74.0439 181.6412 0078099 230.9486 128.4696 14.27217133846832"
      },
      "geometry": {
        "type": "Point",
        "coordinates": [
          -162.5588778365679,
          50.764879229790075
        ]
      }
    },
    {
      "type": "Feature",
      "properties": {
        "norad_id": 36551,
        "name": "COSMOS 2251 DEB",
        "group": "cosmos-2251-debris",
        "lat": -34.67524158833011,
        "lon": -14.83591964229909,
        "alt_km": 530.731021468996,
        "timestamp": "2025-12-21T11:31:43.256980+00:00",
        "meta_object_name": "COSMOS 2251 DEB",
        "meta_object_id": "1993-036BDM",
        "meta_epoch": "2025-12-20T18:06:50.617728",
        "meta_mean_motion": 15.02792529,
        "meta_eccentricity": 0.00510944,
        "meta_inclination": 73.8867,
        "meta_ra_of_asc_node": 358.1943,
        "meta_arg_of_pericenter": 305.9203,
        "meta_mean_anomaly": 53.7248,
        "meta_ephemeris_type": 0,
        "meta_classification_type": "U",
        "meta_norad_cat_id": 36551,
        "meta_element_set_no": 999,
        "meta_rev_at_epoch": 67052,
        "meta_bstar": 0.00081561541,
        "meta_mean_motion_dot": 0.00011204,
        "meta_mean_motion_ddot": 0,
        "tle_line1": "1 36551U 93036BDM 25354.75475252  .00011204  00000+0  81562-3 0  9999",
        "tle_line2": "2 36551  73.8867 358.1943 0051094 305.9203  53.7248 15.02792529670526"
      },
      "geometry": {
        "type": "Point",
        "coordinates": [
          -14.83591964229909,
          -34.67524158833011
        ]
      }
    },
    {
      "type": "Feature",
      "properties": {
        "norad_id": 36557,
        "name": "COSMOS 2251 DEB",
        "group": "cosmos-2251-debris",
        "lat": -72.80347170345958,
        "lon": -2.79030889945084,
        "alt_km": 625.4860380318078,
        "timestamp": "2025-12-21T11:31:43.256991+00:00",
        "meta_object_name": "COSMOS 2251 DEB",
        "meta_object_id": "1993-036BDT",
        "meta_epoch": "2025-12-16T15:02:26.530080",
        "meta_mean_motion": 14.78433531,
        "meta_eccentricity": 0.00216791,
        "meta_inclination": 73.9792,
        "meta_ra_of_asc_node": 118.5873,
        "meta_arg_of_pericenter": 270.9403,
        "meta_mean_anomaly": 88.9288,
        "meta_ephemeris_type": 0,
        "meta_classification_type": "U",
        "meta_norad_cat_id": 36557,
        "meta_element_set_no": 999,
        "meta_rev_at_epoch": 33954,
        "meta_bstar": 0.0025552637,
        "meta_mean_motion_dot": 0.00018721,
        "meta_mean_motion_ddot": 0,
        "tle_line1": "1 36557U 93036BDT 25350.62669595  .00018721  00000+0  25553-2 0  9990",
        "tle_line2": "2 36557  73.9792 118.5873 0021679 270.9403  88.9288 14.78433531339544"
      },
      "geometry": {
        "type": "Point",
        "coordinates": [
          -2.79030889945084,
          -72.80347170345958
        ]
      }
    },
    {
      "type": "Feature",
      "properties": {
        "norad_id": 36558,
        "name": "COSMOS 2251 DEB",
        "group": "cosmos-2251-debris",
        "lat": -16.83851517294477,
        "lon": -37.03539486791848,
        "alt_km": 704.5413711750407,
        "timestamp": "2025-12-21T11:31:43.257001+00:00",
        "meta_object_name": "COSMOS 2251 DEB",
        "meta_object_id": "1993-036BDU",
        "meta_epoch": "2025-12-17T02:41:33.012960",
        "meta_mean_motion": 14.55391753,
        "meta_eccentricity": 0.00127941,
        "meta_inclination": 74.0416,
        "meta_ra_of_asc_node": 146.2642,
        "meta_arg_of_pericenter": 234.8109,
        "meta_mean_anomaly": 125.1857,
        "meta_ephemeris_type": 0,
        "meta_classification_type": "U",
        "meta_norad_cat_id": 36558,
        "meta_element_set_no": 999,
        "meta_rev_at_epoch": 85332,
        "meta_bstar": 0.0007067154,
        "meta_mean_motion_dot": 3.045e-05,
        "meta_mean_motion_ddot": 0,
        "tle_line1": "1 36558U 93036BDU 25351.11218765  .00003045  00000+0  70672-3 0  9991",
        "tle_line2": "2 36558  74.0416 146.2642 0012794 234.8109 125.1857 14.55391753853329"
      },
      "geometry": {
        "type": "Point",
        "coordinates": [
          -37.03539486791848,
          -16.83851517294477
        ]
      }
    },
    {
      "type": "Feature",
      "properties": {
        "norad_id": 36559,
        "name": "COSMOS 2251 DEB",
        "group": "cosmos-2251-debris",
        "lat": -59.10072339114404,
        "lon": -33.49736076569808,
        "alt_km": 906.8845907733239,
        "timestamp": "2025-12-21T11:31:43.257011+00:00",
        "meta_object_name": "COSMOS 2251 DEB",
        "meta_object_id": "1993-036BDV",
        "meta_epoch": "2025-12-16T01:02:38.774976",
        "meta_mean_motion": 13.95226172,
        "meta_eccentricity": 0.0260446,
        "meta_inclination": 74.1323,
        "meta_ra_of_asc_node": 4.1653,
        "meta_arg_of_pericenter": 36.0043,
        "meta_mean_anomaly": 325.8321,
        "meta_ephemeris_type": 0,
        "meta_classification_type": "U",
        "meta_norad_cat_id": 36559,
        "meta_element_set_no": 999,
        "meta_rev_at_epoch": 81140,
        "meta_bstar": 0.0020581095,
        "meta_mean_motion_dot": 3.672e-05,
        "meta_mean_motion_ddot": 0,
        "tle_line1": "1 36559U 93036BDV 25350.04350434  .00003672  00000+0  20581-2 0  9992",
        "tle_line2": "2 36559  74.1323   4.1653 0260446  36.0043 325.8321 13.95226172811403"
      },
      "geometry": {
        "type": "Point",
        "coordinates": [
          -33.49736076569808,
          -59.10072339114404
        ]
      }
    },
    {
      "type": "Feature",
      "properties": {
        "norad_id": 36614,
        "name": "COSMOS 2251 DEB",
        "group": "cosmos-2251-debris",
        "lat": 8.830369717344015,
        "lon": 160.43564954260327,
        "alt_km": 702.2185476382783,
        "timestamp": "2025-12-21T11:31:43.257021+00:00",
        "meta_object_name": "COSMOS 2251 DEB",
        "meta_object_id": "1993-036BEC",
        "meta_epoch": "2025-12-20T17:24:05.102784",
        "meta_mean_motion": 14.60353691,
        "meta_eccentricity": 0.0015826,
        "meta_inclination": 74.0208,
        "meta_ra_of_asc_node": 159.3271,
        "meta_arg_of_pericenter": 229.1193,
        "meta_mean_anomaly": 130.8602,
        "meta_ephemeris_type": 0,
        "meta_classification_type": "U",
        "meta_norad_cat_id": 36614,
        "meta_element_set_no": 999,
        "meta_rev_at_epoch": 65729,
        "meta_bstar": 0.00087623932,
        "meta_mean_motion_dot": 4.218e-05,
        "meta_mean_motion_ddot": 0,
        "tle_line1": "1 36614U 93036BEC 25354.72505906  .00004218  00000+0  87624-3 0  9998",
        "tle_line2": "2 36614  74.0208 159.3271 0015826 229.1193 130.8602 14.60353691657297"
      },
      "geometry": {
        "type": "Point",
        "coordinates": [
          160.43564954260327,
          8.830369717344015
        ]
      }
    }
  ]
}